NORAD_CAT_ID,OBJECT_NAME,OBJECT_TYPE,EPOCH,MEAN_MOTION,ECCENTRICITY,INCLINATION,RA_OF_ASC_NODE,ARG_OF_PERICENTER,MEAN_ANOMALY,BSTAR,MEAN_MOTION_DOT,MEAN_MOTION_DDOT,TLE_LINE0,TLE_LINE1,TLE_LINE2,SEMIMAJOR_AXIS,PERIOD,APOGEE,PERIGEE,DECAYED
52849.0,STARLINK-4197,PAYLOAD,2023-03-25 00:00:04,15.08880667,0.0001374,53.2158,195.5246,72.9712,287.143,0.00041142,6.273e-05,0.0,0 STARLINK-4197,1 52849U 22062V   23084.00004960  .00006273  00000-0  41142-3 0  9999,2 52849  53.2158 195.5246 0001374  72.9712 287.1430 15.08880667 43268,6917.756,95.435,540.572,538.671,0.0
52849.0,STARLINK-4197,PAYLOAD,2023-03-25 12:43:12,15.08810904,0.0001082,53.2153,193.1451,82.0601,278.0514,-0.00057691,-9.45e-05,0.0,0 STARLINK-4197,1 52849U 22062V   23084.53000776 -.00009450  00000-0 -57691-3 0  9996,2 52849  53.2153 193.1451 0001082  82.0601 278.0514 15.08810904 43348,6917.969,95.439,540.583,539.086,0.0
52849.0,STARLINK-4197,PAYLOAD,2023-03-25 23:50:54,15.08815127,0.0001079,53.2149,191.0639,90.5332,269.5783,-0.00049249,-8.112e-05,0.0,0 STARLINK-4197,1 52849U 22062V   23084.99368971 -.00008112  00000-0 -49249-3 0  9994,2 52849  53.2149 191.0639 0001079  90.5332 269.5783 15.08815127 43412,6917.956,95.439,540.568,539.075,0.0
52849.0,STARLINK-4197,PAYLOAD,2023-03-26 12:34:00,15.08820015,0.0001055,53.2143,188.6861,89.6027,270.5086,-0.00020626,-3.567e-05,0.0,0 STARLINK-4197,1 52849U 22062V   23085.52361149 -.00003567  00000-0 -20626-3 0  9991,2 52849  53.2143 188.6861 0001055  89.6027 270.5086 15.08820015 43497,6917.941,95.439,540.536,539.077,0.0
52849.0,STARLINK-4197,PAYLOAD,2023-03-26 14:09:23,15.08819214,0.0001076,53.2145,188.3885,91.547,268.5645,0.00020148,2.918e-05,0.0,0 STARLINK-4197,1 52849U 22062V   23085.58985491  .00002918  00000-0  20148-3 0  9995,2 52849  53.2145 188.3885 0001076  91.5470 268.5645 15.08819214 43014,6917.944,95.439,540.553,539.065,0.0
52849.0,STARLINK-4197,PAYLOAD,2023-03-27 12:24:48,15.08851806,0.0001151,53.2132,184.2264,90.0183,270.0941,0.0011013,0.00017288,0.0,0 STARLINK-4197,1 52849U 22062V   23086.51722305  .00017288  00000-0  11013-2 0  9998,2 52849  53.2132 184.2264 0001151  90.0183 270.0941 15.08851806 43644,6917.844,95.437,540.506,538.913,0.0
52849.0,STARLINK-4197,PAYLOAD,2023-03-27 14:00:11,15.08856738,0.0001174,53.2131,183.9296,87.1462,272.9664,0.0013061,0.00020569,0.0,0 STARLINK-4197,1 52849U 22062V   23086.58346202  .00020569  00000-0  13061-2 0  9994,2 52849  53.2131 183.9296 0001174  87.1462 272.9664 15.08856738 43165,6917.829,95.436,540.506,538.882,0.0
52849.0,STARLINK-4197,PAYLOAD,2023-03-27 15:35:34,15.08863227,0.0001209,53.2132,183.6318,85.8907,274.2224,0.0014888,0.00023501,0.0,0 STARLINK-4197,1 52849U 22062V   23086.64970048  .00023501  00000-0  14888-2 0  9999,2 52849  53.2132 183.6318 0001209  85.8907 274.2224 15.08863227 43175,6917.809,95.436,540.511,538.838,0.0
52849.0,STARLINK-4197,PAYLOAD,2023-03-27 23:32:30,15.0884606,0.0001939,53.2125,182.1462,74.6335,285.4872,0.00085592,0.00013362,0.0,0 STARLINK-4197,1 52849U 22062V   23086.98090604  .00013362  00000-0  85592-3 0  9992,2 52849  53.2125 182.1462 0001939  74.6335 285.4872 15.08846060 43711,6917.862,95.437,541.068,538.385,0.0
52849.0,STARLINK-4197,PAYLOAD,2023-03-28 13:50:58,15.08852425,0.0001454,53.2138,179.4676,73.5119,286.6033,0.0005862,9.057e-05,0.0,0 STARLINK-4197,1 52849U 22062V   23087.57706095  .00009057  00000-0  58620-3 0  9994,2 52849  53.2138 179.4676 0001454  73.5119 286.6033 15.08852425 43311,6917.842,95.437,540.713,538.702,0.0
52849.0,STARLINK-4197,PAYLOAD,2023-03-28 15:26:21,15.08857328,0.0001512,53.2146,179.1678,76.2805,283.8356,0.00073805,0.00011483,0.0,0 STARLINK-4197,1 52849U 22062V   23087.64329944  .00011483  00000-0  73805-3 0  9994,2 52849  53.2146 179.1678 0001512  76.2805 283.8356 15.08857328 43321,6917.827,95.436,540.738,538.646,0.0
52849.0,STARLINK-4197,PAYLOAD,2023-03-29 05:44:49,15.08849875,0.0001034,53.2134,176.4942,88.2535,271.8576,0.00078178,0.00012179,0.0,0 STARLINK-4197,1 52849U 22062V   23088.23946154  .00012179  00000-0  78178-3 0  9999,2 52849  53.2134 176.4942 0001034  88.2535 271.8576 15.08849875 43907,6917.85,95.437,540.431,539.0,0.0
52849.0,STARLINK-4197,PAYLOAD,2023-03-29 12:06:21,15.08846962,0.0001947,53.2151,175.3021,129.438,230.6785,0.0010725,0.00016825,0.0,0 STARLINK-4197,1 52849U 22062V   23088.50441940  .00016825  00000-0  10725-2 0  9997,2 52849  53.2151 175.3021 0001947 129.4380 230.6785 15.08846962 43450,6917.859,95.437,541.071,538.377,0.0
52849.0,STARLINK-4197,PAYLOAD,2023-03-29 16:52:31,15.0886411,0.000115,53.2144,174.4098,99.0789,261.0333,0.0015502,0.00024486,0.0,0 STARLINK-4197,1 52849U 22062V   23088.70313738  .00024486  00000-0  15502-2 0  9992,2 52849  53.2144 174.4098 0001150  99.0789 261.0333 15.08864110 43482,6917.807,95.436,540.467,538.876,0.0
52849.0,STARLINK-4197,PAYLOAD,2023-03-30 05:35:36,15.08842759,0.0001532,53.214,172.032,101.115,259.0015,0.00074953,0.00011662,0.0,0 STARLINK-4197,1 52849U 22062V   23089.23306237  .00011662  00000-0  74953-3 0  9995,2 52849  53.2140 172.0320 0001532 101.1150 259.0015 15.08842759 44054,6917.872,95.437,540.797,538.677,0.0
52849.0,STARLINK-4197,PAYLOAD,2023-03-30 11:57:09,15.0885141,0.0001533,53.2147,170.8434,103.9585,256.1577,0.001893,0.00029977,0.0,0 STARLINK-4197,1 52849U 22062V   23089.49802310  .00029977  00000-0  18930-2 0  9996,2 52849  53.2147 170.8434 0001533 103.9585 256.1577 15.08851410 43601,6917.846,95.437,540.771,538.65,0.0
52849.0,STARLINK-4197,PAYLOAD,2023-03-31 05:26:23,15.08866934,0.0001317,53.2153,167.5717,92.6375,267.4768,0.0023228,0.00036901,0.0,0 STARLINK-4197,1 52849U 22062V   23090.22666435  .00036901  00000-0  23228-2 0  9996,2 52849  53.2153 167.5717 0001317  92.6375 267.4768 15.08866934 44207,6917.798,95.436,540.574,538.752,0.0
52849.0,STARLINK-4197,PAYLOAD,2023-03-31 10:12:33,15.08856095,0.0001284,53.2151,166.68,93.3358,266.7781,0.0012058,0.00018963,0.0,0 STARLINK-4197,1 52849U 22062V   23090.42538259  .00018963  00000-0  12058-2 0  9997,2 52849  53.2151 166.6800 0001284  93.3358 266.7781 15.08856095 44237,6917.831,95.437,540.584,538.808,0.0
52849.0,STARLINK-4197,PAYLOAD,2023-04-01 05:17:10,15.08849723,0.0001904,53.2144,163.1129,105.5421,254.5781,0.0004587,7.022e-05,0.0,0 STARLINK-4197,1 52849U 22062V   23091.22026349  .00007022  00000-0  45870-3 0  9991,2 52849  53.2144 163.1129 0001904 105.5421 254.5781 15.08849723 44359,6917.851,95.437,541.033,538.399,0.0
52849.0,STARLINK-4197,PAYLOAD,2023-04-01 11:38:43,15.08852087,0.0001618,53.2149,161.9205,111.521,248.5955,0.00083562,0.0001304,0.0,0 STARLINK-4197,1 52849U 22062V   23091.48522182  .00013040  00000-0  83562-3 0  9992,2 52849  53.2149 161.9205 0001618 111.5210 248.5955 15.08852087 43903,6917.843,95.437,540.828,538.589,0.0
52849.0,STARLINK-4197,PAYLOAD,2023-04-01 21:11:01,15.08851099,0.0001531,53.2153,160.1379,90.8795,269.2373,0.00058823,9.089e-05,0.0,0 STARLINK-4197,1 52849U 22062V   23091.88266111  .00009089  00000-0  58823-3 0  9993,2 52849  53.2153 160.1379 0001531  90.8795 269.2373 15.08851099 43964,6917.846,95.437,540.771,538.652,0.0
52849.0,STARLINK-4197,PAYLOAD,2023-04-02 05:07:57,15.08836511,0.0001492,53.2148,158.6518,90.3111,269.8053,0.00016138,2.281e-05,0.0,0 STARLINK-4197,1 52849U 22062V   23092.21386335  .00002281  00000-0  16138-3 0  9992,2 52849  53.2148 158.6518 0001492  90.3111 269.8053 15.08836511 44502,6917.891,95.438,540.788,538.724,0.0
52849.0,STARLINK-4197,PAYLOAD,2023-04-02 09:54:07,15.08839896,0.0001805,53.217,157.766,106.2896,253.8295,2.2847e-05,7.6e-07,0.0,0 STARLINK-4197,1 52849U 22062V   23092.41258337  .00000076  00000-0  22847-4 0  9999,2 52849  53.2170 157.7660 0001805 106.2896 253.8295 15.08839896 44049,6917.881,95.438,540.994,538.497,0.0
52849.0,STARLINK-4197,PAYLOAD,2023-04-02 21:01:49,15.08830446,0.0001067,53.2139,155.6799,117.1302,242.9799,-9.8719e-05,-1.858e-05,0.0,0 STARLINK-4197,1 52849U 22062V   23092.87626674 -.00001858  00000-0 -98719-4 0  9994,2 52849  53.2139 155.6799 0001067 117.1302 242.9799 15.08830446 44115,6917.91,95.438,540.513,539.036,0.0
52849.0,STARLINK-4197,PAYLOAD,2023-04-03 11:20:17,15.08833314,0.0001225,53.2145,153.002,104.3468,255.766,4.1379e-05,3.71e-06,0.0,0 STARLINK-4197,1 52849U 22062V   23093.47242949  .00000371  00000-0  41379-4 0  9997,2 52849  53.2145 153.0020 0001225 104.3468 255.7660 15.08833314 44697,6917.901,95.438,540.613,538.918,0.0
52849.0,STARLINK-4197,PAYLOAD,2023-04-03 12:55:41,15.08836276,0.00013,53.2145,152.7048,107.3538,252.7596,0.00013016,1.784e-05,0.0,0 STARLINK-4197,1 52849U 22062V   23093.53866900  .00001784  00000-0  13016-3 0  9998,2 52849  53.2145 152.7048 0001300 107.3538 252.7596 15.08836276 44211,6917.892,95.438,540.656,538.857,0.0
52849.0,STARLINK-4197,PAYLOAD,2023-04-03 20:52:36,15.08840279,0.0001225,53.2143,151.2178,97.4188,262.6943,0.0003044,4.56e-05,0.0,0 STARLINK-4197,1 52849U 22062V   23093.86987004  .00004560  00000-0  30440-3 0  9998,2 52849  53.2143 151.2178 0001225  97.4188 262.6943 15.08840279 44262,6917.88,95.438,540.592,538.897,0.0
52849.0,STARLINK-4197,PAYLOAD,2023-04-04 12:46:28,15.0884927,0.0001222,53.2138,148.2439,93.0635,267.0497,0.00054057,8.328e-05,0.0,0 STARLINK-4197,1 52849U 22062V   23094.53226925  .00008328  00000-0  54057-3 0  9997,2 52849  53.2138 148.2439 0001222  93.0635 267.0497 15.08849270 44856,6917.852,95.437,540.562,538.872,0.0
52849.0,STARLINK-4197,PAYLOAD,2023-04-05 03:04:56,15.08842678,0.0001355,53.2135,145.5675,92.1287,267.986,0.00023551,3.462e-05,0.0,0 STARLINK-4197,1 52849U 22062V   23095.12843142  .00003462  00000-0  23551-3 0  9998,2 52849  53.2135 145.5675 0001355  92.1287 267.9860 15.08842678 44943,6917.872,95.437,540.675,538.8,0.0
52849.0,STARLINK-4197,PAYLOAD,2023-04-05 11:01:52,15.08842951,0.0001269,53.214,144.0811,84.486,275.6277,0.00024062,3.544e-05,0.0,0 STARLINK-4197,1 52849U 22062V   23095.45963183  .00003544  00000-0  24062-3 0  9991,2 52849  53.2140 144.0811 0001269  84.4860 275.6277 15.08842951 44504,6917.871,95.437,540.614,538.858,0.0
